{
  "type": "FeatureCollection",
  "features": [
    {
      "type": "Feature",
      "properties": {
        "norad_id": 52912,
        "name": "GAOFEN-12 03",
        "group": "resource",
        "lat": -0.20897882433602796,
        "lon": -120.30227633049698,
        "alt_km": 632.7026288769312,
        "timestamp": "2025-12-18T10:51:25.447063+00:00",
        "meta_object_name": "GAOFEN-12 03",
        "meta_object_id": "2022-069A",
        "meta_epoch": "2025-12-17T23:29:48.611904",
        "meta_mean_motion": 14.79620595,
        "meta_eccentricity": 0.0002056,
        "meta_inclination": 97.8486,
        "meta_ra_of_asc_node": 239.2066,
        "meta_arg_of_pericenter": 54.4942,
        "meta_mean_anomaly": 305.6462,
        "meta_ephemeris_type": 0,
        "meta_classification_type": "U",
        "meta_norad_cat_id": 52912,
        "meta_element_set_no": 999,
        "meta_rev_at_epoch": 18781,
        "meta_bstar": 0.00010842815,
        "meta_mean_motion_dot": 7.62e-06,
        "meta_mean_motion_ddot": 0,
        "tle_line1": "1 52912U 22069A   25351.97903486  .00000762  00000+0  10843-3 0  9993",
        "tle_line2": "2 52912  97.8486 239.2066 0002056  54.4942 305.6462 14.79620595187811"
      },
      "geometry": {
        "type": "Point",
        "coordinates": [
          -120.30227633049698,
          -0.20897882433602796
        ]
      }
    },
    {
      "type": "Feature",
      "properties": {
        "norad_id": 54754,
        "name": "SWOT",
        "group": "resource",
        "lat": 32.71770953968548,
        "lon": 91.16085006666798,
        "alt_km": 890.8559893090069,
        "timestamp": "2025-12-18T10:51:25.447074+00:00",
        "meta_object_name": "SWOT",
        "meta_object_id": "2022-173A",
        "meta_epoch": "2025-12-17T20:26:29.218848",
        "meta_mean_motion": 14.00167648,
        "meta_eccentricity": 3.69e-05,
        "meta_inclination": 77.6108,
        "meta_ra_of_asc_node": 280.0891,
        "meta_arg_of_pericenter": 99.5763,
        "meta_mean_anomaly": 260.543,
        "meta_ephemeris_type": 0,
        "meta_classification_type": "U",
        "meta_norad_cat_id": 54754,
        "meta_element_set_no": 999,
        "meta_rev_at_epoch": 15377,
        "meta_bstar": 5.2734574e-05,
        "meta_mean_motion_dot": 7.5e-07,
        "meta_mean_motion_ddot": 0,
        "tle_line1": "1 54754U 22173A   25351.85172707  .00000075  00000+0  52735-4 0  9990",
        "tle_line2": "2 54754  77.6108 280.0891 0000369  99.5763 260.5430 14.00167648153771"
      },
      "geometry": {
        "type": "Point",
        "coordinates": [
          91.16085006666798,
          32.71770953968548
        ]
      }
    },
    {
      "type": "Feature",
      "properties": {
        "norad_id": 57654,
        "name": "GAOFEN-12 04",
        "group": "resource",
        "lat": 8.319390222956129,
        "lon": 89.28812639828323,
        "alt_km": 632.2131155645093,
        "timestamp": "2025-12-18T10:51:25.447084+00:00",
        "meta_object_name": "GAOFEN-12 04",
        "meta_object_id": "2023-123A",
        "meta_epoch": "2025-12-17T22:43:27.242976",
        "meta_mean_motion": 14.79714966,
        "meta_eccentricity": 0.00012565,
        "meta_inclination": 97.9125,
        "meta_ra_of_asc_node": 267.625,
        "meta_arg_of_pericenter": 75.2734,
        "meta_mean_anomaly": 284.8617,
        "meta_ephemeris_type": 0,
        "meta_classification_type": "U",
        "meta_norad_cat_id": 57654,
        "meta_element_set_no": 999,
        "meta_rev_at_epoch": 12582,
        "meta_bstar": 0.00014904397,
        "meta_mean_motion_dot": 1.068e-05,
        "meta_mean_motion_ddot": 0,
        "tle_line1": "1 57654U 23123A   25351.94684309  .00001068  00000+0  14904-3 0  9992",
        "tle_line2": "2 57654  97.9125 267.6250 0001256  75.2734 284.8617 14.79714966125820"
      },
      "geometry": {
        "type": "Point",
        "coordinates": [
          89.28812639828323,
          8.319390222956129
        ]
      }
    },
    {
      "type": "Feature",
      "properties": {
        "norad_id": 59065,
        "name": "PARS 1",
        "group": "resource",
        "lat": 26.933903958924503,
        "lon": -40.31226312736154,
        "alt_km": 434.5218118307557,
        "timestamp": "2025-12-18T10:51:25.447095+00:00",
        "meta_object_name": "PARS 1",
        "meta_object_id": "2024-039Q",
        "meta_epoch": "2025-12-17T23:49:52.641696",
        "meta_mean_motion": 15.41091838,
        "meta_eccentricity": 0.00122303,
        "meta_inclination": 97.4633,
        "meta_ra_of_asc_node": 323.0375,
        "meta_arg_of_pericenter": 56.4341,
        "meta_mean_anomaly": 303.8072,
        "meta_ephemeris_type": 0,
        "meta_classification_type": "U",
        "meta_norad_cat_id": 59065,
        "meta_element_set_no": 999,
        "meta_rev_at_epoch": 10069,
        "meta_bstar": 0.00024126743,
        "meta_mean_motion_dot": 9.918e-05,
        "meta_mean_motion_ddot": 0,
        "tle_line1": "1 59065U 24039Q   25351.99297039  .00009918  00000+0  24127-3 0  9992",
        "tle_line2": "2 59065  97.4633 323.0375 0012230  56.4341 303.8072 15.41091838100692"
      },
      "geometry": {
        "type": "Point",
        "coordinates": [
          -40.31226312736154,
          26.933903958924503
        ]
      }
    },
    {
      "type": "Feature",
      "properties": {
        "norad_id": 59371,
        "name": "RESURS-P 4",
        "group": "resource",
        "lat": -14.122060867449422,
        "lon": -59.49814711780991,
        "alt_km": 473.93772668503607,
        "timestamp": "2025-12-18T10:51:25.447106+00:00",
        "meta_object_name": "RESURS-P 4",
        "meta_object_id": "2024-061A",
        "meta_epoch": "2025-12-17T23:56:48.518592",
        "meta_mean_motion": 15.32126606,
        "meta_eccentricity": 0.00011422,
        "meta_inclination": 97.2549,
        "meta_ra_of_asc_node": 298.2198,
        "meta_arg_of_pericenter": 57.5613,
        "meta_mean_anomaly": 302.5739,
        "meta_ephemeris_type": 0,
        "meta_classification_type": "U",
        "meta_norad_cat_id": 59371,
        "meta_element_set_no": 999,
        "meta_rev_at_epoch": 9601,
        "meta_bstar": 0.00011016282,
        "meta_mean_motion_dot": 3.341e-05,
        "meta_mean_motion_ddot": 0,
        "tle_line1": "1 59371U 24061A   25351.99778378  .00003341  00000+0  11016-3 0  9994",
        "tle_line2": "2 59371  97.2549 298.2198 0001142  57.5613 302.5739 15.32126606 96014"
      },
      "geometry": {
        "type": "Point",
        "coordinates": [
          -59.49814711780991,
          -14.122060867449422
        ]
      }
    },
    {
      "type": "Feature",
      "properties": {
        "norad_id": 59625,
        "name": "LEGION 1",
        "group": "resource",
        "lat": -69.38380594825533,
        "lon": -133.51914245419405,
        "alt_km": 521.7142130601806,
        "timestamp": "2025-12-18T10:51:25.447116+00:00",
        "meta_object_name": "LEGION 1",
        "meta_object_id": "2024-081A",
        "meta_epoch": "2025-12-17T19:30:08.812800",
        "meta_mean_motion": 15.16530266,
        "meta_eccentricity": 0.0003705,
        "meta_inclination": 97.5215,
        "meta_ra_of_asc_node": 66.4081,
        "meta_arg_of_pericenter": 294.9071,
        "meta_mean_anomaly": 65.1777,
        "meta_ephemeris_type": 0,
        "meta_classification_type": "U",
        "meta_norad_cat_id": 59625,
        "meta_element_set_no": 999,
        "meta_rev_at_epoch": 9004,
        "meta_bstar": 0.00021899154,
        "meta_mean_motion_dot": 4.203e-05,
        "meta_mean_motion_ddot": 0,
        "tle_line1": "1 59625U 24081A   25351.81260200  .00004203  00000+0  21899-3 0  9997",
        "tle_line2": "2 59625  97.5215  66.4081 0003705 294.9071  65.1777 15.16530266 90041"
      },
      "geometry": {
        "type": "Point",
        "coordinates": [
          -133.51914245419405,
          -69.38380594825533
        ]
      }
    },
    {
      "type": "Feature",
      "properties": {
        "norad_id": 59626,
        "name": "LEGION 2",
        "group": "resource",
        "lat": 69.37212050178351,
        "lon": 46.581091357647324,
        "alt_km": 513.2441496929123,
        "timestamp": "2025-12-18T10:51:25.447127+00:00",
        "meta_object_name": "LEGION 2",
        "meta_object_id": "2024-081B",
        "meta_epoch": "2025-12-17T20:17:38.906880",
        "meta_mean_motion": 15.16542235,
        "meta_eccentricity": 0.00056188,
        "meta_inclination": 97.5217,
        "meta_ra_of_asc_node": 66.5283,
        "meta_arg_of_pericenter": 271.4978,
        "meta_mean_anomaly": 88.5611,
        "meta_ephemeris_type": 0,
        "meta_classification_type": "U",
        "meta_norad_cat_id": 59626,
        "meta_element_set_no": 999,
        "meta_rev_at_epoch": 9005,
        "meta_bstar": 0.00021044269,
        "meta_mean_motion_dot": 4.038e-05,
        "meta_mean_motion_ddot": 0,
        "tle_line1": "1 59626U 24081B   25351.84558920  .00004038  00000+0  21044-3 0  9998",
        "tle_line2": "2 59626  97.5217  66.5283 0005618 271.4978  88.5611 15.16542235 90056"
      },
      "geometry": {
        "type": "Point",
        "coordinates": [
          46.581091357647324,
          69.37212050178351
        ]
      }
    }
  ]
}